NORAD_CAT_ID,OBJECT_NAME,OBJECT_TYPE,EPOCH,MEAN_MOTION,ECCENTRICITY,INCLINATION,RA_OF_ASC_NODE,ARG_OF_PERICENTER,MEAN_ANOMALY,BSTAR,MEAN_MOTION_DOT,MEAN_MOTION_DDOT,TLE_LINE0,TLE_LINE1,TLE_LINE2,SEMIMAJOR_AXIS,PERIOD,APOGEE,PERIGEE,DECAYED
53855.0,STARLINK-4703,PAYLOAD,2023-05-18 14:53:36,15.08840866,9.18e-05,53.2153,220.0664,99.6305,260.4791,8.7312e-06,-1.49e-06,0.0,0 STARLINK-4703,1 53855U 22114AP  23138.62056419 -.00000149  00000-0  87312-5 0  9997,2 53855  53.2153 220.0664 0000918  99.6305 260.4791 15.08840866 38070,6917.878,95.437,540.378,539.108,0.0
53855.0,STARLINK-4703,PAYLOAD,2023-05-19 08:22:51,15.08838011,9.7e-05,53.2154,216.7959,90.4275,269.6828,2.3949e-05,9.3e-07,0.0,0 STARLINK-4703,1 53855U 22114AP  23139.34920689  .00000093  00000-0  23949-4 0  9998,2 53855  53.2154 216.7959 0000970  90.4275 269.6828 15.08838011 37646,6917.886,95.438,540.423,539.08,0.0
53855.0,STARLINK-4703,PAYLOAD,2023-05-19 11:33:37,15.08841685,9.99e-05,53.2153,216.2008,93.5094,266.6012,-1.1233e-05,-4.67e-06,0.0,0 STARLINK-4703,1 53855U 22114AP  23139.48168551 -.00000467  00000-0 -11233-4 0  9995,2 53855  53.2153 216.2008 0000999  93.5094 266.6012 15.08841685 38205,6917.875,95.437,540.431,539.049,0.0
53855.0,STARLINK-4703,PAYLOAD,2023-05-20 09:49:00,15.08848022,9.67e-05,53.2155,212.038,89.6906,270.4197,0.00017855,2.556e-05,0.0,0 STARLINK-4703,1 53855U 22114AP  23140.40903631  .00002556  00000-0  17855-3 0  9999,2 53855  53.2155 212.0380 0000967  89.6906 270.4197 15.08848022 37801,6917.856,95.437,540.39,539.052,0.0
53855.0,STARLINK-4703,PAYLOAD,2023-05-20 14:35:09,15.088575,0.0001011,53.2156,211.1452,90.0133,270.0975,0.00022523,3.3e-05,0.0,0 STARLINK-4703,1 53855U 22114AP  23140.60774939  .00003300  00000-0  22523-3 0  9994,2 53855  53.2156 211.1452 0001011  90.0133 270.0975 15.08857500 37835,6917.827,95.436,540.391,538.993,0.0
53855.0,STARLINK-4703,PAYLOAD,2023-05-21 08:04:25,15.08835043,8.09e-05,53.2149,207.8751,126.9164,233.1902,2.1536e-05,5.5e-07,0.0,0 STARLINK-4703,1 53855U 22114AP  23141.33640794  .00000055  00000-0  21536-4 0  9994,2 53855  53.2149 207.8751 0000809 126.9164 233.1902 15.08835043 37948,6917.896,95.438,540.32,539.201,0.0
53855.0,STARLINK-4703,PAYLOAD,2023-05-21 09:39:49,15.08830369,9.48e-05,53.2148,207.5778,94.4019,265.7081,-3.6051e-05,-8.61e-06,0.0,0 STARLINK-4703,1 53855U 22114AP  23141.40265203 -.00000861  00000-0 -36051-4 0  9995,2 53855  53.2148 207.5778 0000948  94.4019 265.7081 15.08830369 38491,6917.91,95.438,540.431,539.119,0.0
53855.0,STARLINK-4703,PAYLOAD,2023-05-21 20:47:31,15.08832775,9.33e-05,53.215,205.4964,88.69,271.4199,-2.1375e-05,-6.28e-06,0.0,0 STARLINK-4703,1 53855U 22114AP  23141.86633338 -.00000628  00000-0 -21375-4 0  9997,2 53855  53.2150 205.4964 0000933  88.6900 271.4199 15.08832775 38561,6917.902,95.438,540.413,539.122,0.0
53855.0,STARLINK-4703,PAYLOAD,2023-05-22 11:05:59,15.0884786,8.85e-05,53.2148,202.8201,90.7355,269.3738,0.00031482,4.727e-05,0.0,0 STARLINK-4703,1 53855U 22114AP  23142.46248904  .00004727  00000-0  31482-3 0  9996,2 53855  53.2148 202.8201 0000885  90.7355 269.3738 15.08847860 38114,6917.856,95.437,540.334,539.109,0.0
53855.0,STARLINK-4703,PAYLOAD,2023-05-22 20:38:18,15.08845437,8.68e-05,53.2144,201.0362,94.7971,265.312,0.00041772,6.367e-05,0.0,0 STARLINK-4703,1 53855U 22114AP  23142.85993130  .00006367  00000-0  41772-3 0  9992,2 53855  53.2144 201.0362 0000868  94.7971 265.3120 15.08845437 38713,6917.864,95.437,540.329,539.128,0.0
53855.0,STARLINK-4703,PAYLOAD,2023-05-23 09:21:23,15.08842444,9.28e-05,53.214,198.6576,96.3975,263.7122,0.00021983,3.213e-05,0.0,0 STARLINK-4703,1 53855U 22114AP  23143.38985235  .00003213  00000-0  21983-3 0  9997,2 53855  53.2140 198.6576 0000928  96.3975 263.7122 15.08842444 38254,6917.873,95.437,540.38,539.096,0.0
53855.0,STARLINK-4703,PAYLOAD,2023-05-23 20:29:05,15.08845526,9.3e-05,53.2139,196.5761,95.6174,264.4924,0.00018202,2.611e-05,0.0,0 STARLINK-4703,1 53855U 22114AP  23143.85353033  .00002611  00000-0  18202-3 0  9995,2 53855  53.2139 196.5761 0000930  95.6174 264.4924 15.08845526 38860,6917.863,95.437,540.372,539.085,0.0
53855.0,STARLINK-4703,PAYLOAD,2023-05-24 09:12:10,15.08844048,9.79e-05,53.2138,194.1977,100.2126,259.8977,7.9585e-05,9.79e-06,0.0,0 STARLINK-4703,1 53855U 22114AP  23144.38344941  .00000979  00000-0  79585-4 0  9999,2 53855  53.2138 194.1977 0000979 100.2126 259.8977 15.08844048 38948,6917.868,95.437,540.41,539.056,0.0
53855.0,STARLINK-4703,PAYLOAD,2023-05-25 23:21:25,15.08843591,0.0001107,53.215,187.0609,87.0833,273.0286,7.5858e-05,9.2e-06,0.0,0 STARLINK-4703,1 53855U 22114AP  23145.97320797  .00000920  00000-0  75858-4 0  9993,2 53855  53.2150 187.0609 0001107  87.0833 273.0286 15.08843591 38646,6917.869,95.437,540.5,538.969,0.0
53855.0,STARLINK-4703,PAYLOAD,2023-05-26 12:04:30,15.08841289,0.0001095,53.2154,184.6811,88.3785,271.7332,6.6869e-05,7.77e-06,0.0,0 STARLINK-4703,1 53855U 22114AP  23146.50313030  .00000777  00000-0  66869-4 0  9997,2 53855  53.2154 184.6811 0001095  88.3785 271.7332 15.08841289 39262,6917.876,95.437,540.499,538.984,0.0
53855.0,STARLINK-4703,PAYLOAD,2023-05-26 23:12:12,15.08841696,0.0001191,53.215,182.5994,86.8279,273.2849,1.8835e-05,1.2e-07,0.0,0 STARLINK-4703,1 53855U 22114AP  23146.96681073  .00000012  00000-0  18835-4 0  9994,2 53855  53.2150 182.5994 0001191  86.8279 273.2849 15.08841696 38794,6917.875,95.437,540.564,538.916,0.0
53855.0,STARLINK-4703,PAYLOAD,2023-05-27 08:44:31,15.08842529,0.0001138,53.2152,180.8147,90.1524,269.9599,3.109e-06,-2.38e-06,0.0,0 STARLINK-4703,1 53855U 22114AP  23147.36424909 -.00000238  00000-0  31090-5 0  9992,2 53855  53.2152 180.8147 0001138  90.1524 269.9599 15.08842529 39396,6917.873,95.437,540.525,538.95,0.0
53855.0,STARLINK-4703,PAYLOAD,2023-05-28 02:13:45,15.08836832,0.0001125,53.215,177.5427,90.9387,269.1734,6.8402e-05,8.01e-06,0.0,0 STARLINK-4703,1 53855U 22114AP  23148.09289048  .00000801  00000-0  68402-4 0  9997,2 53855  53.2150 177.5427 0001125  90.9387 269.1734 15.08836832 38964,6917.89,95.438,540.533,538.977,0.0
53855.0,STARLINK-4703,PAYLOAD,2023-05-28 05:24:32,15.08837513,0.0001123,53.215,176.9479,90.9501,269.162,7.2793e-05,8.71e-06,0.0,0 STARLINK-4703,1 53855U 22114AP  23148.22537058  .00000871  00000-0  72793-4 0  9994,2 53855  53.2150 176.9479 0001123  90.9501 269.1620 15.08837513 39524,6917.888,95.438,540.53,538.976,0.0
53855.0,STARLINK-4703,PAYLOAD,2023-05-28 08:35:18,15.08838107,0.0001124,53.215,176.3532,90.5609,269.5512,7.5311e-05,9.11e-06,0.0,0 STARLINK-4703,1 53855U 22114AP  23148.35785034  .00000911  00000-0  75311-4 0  9991,2 53855  53.2150 176.3532 0001124  90.5609 269.5512 15.08838107 39540,6917.886,95.438,540.529,538.974,0.0
53855.0,STARLINK-4703,PAYLOAD,2023-05-29 08:26:05,15.0883881,0.0001103,53.215,171.893,87.9886,272.1233,5.4458e-05,5.79e-06,0.0,0 STARLINK-4703,1 53855U 22114AP  23149.35145154  .00000579  00000-0  54458-4 0  9994,2 53855  53.2150 171.8930 0001103  87.9886 272.1233 15.08838810 39154,6917.884,95.438,540.512,538.986,0.0
53855.0,STARLINK-4703,PAYLOAD,2023-05-29 17:58:24,15.08837044,0.0001102,53.2149,170.1085,86.7009,273.4109,3.4794e-05,2.66e-06,0.0,0 STARLINK-4703,1 53855U 22114AP  23149.74889357  .00000266  00000-0  34794-4 0  9991,2 53855  53.2149 170.1085 0001102  86.7009 273.4109 15.08837044 39758,6917.889,95.438,540.517,538.992,0.0
53855.0,STARLINK-4703,PAYLOAD,2023-05-30 08:16:52,15.0883469,0.0001104,53.2153,167.4329,94.8459,265.266,1.9192e-05,1.8e-07,0.0,0 STARLINK-4703,1 53855U 22114AP  23150.34505652  .00000018  00000-0  19192-4 0  9992,2 53855  53.2153 167.4329 0001104  94.8459 265.2660 15.08834690 39300,6917.897,95.438,540.525,538.998,0.0
53855.0,STARLINK-4703,PAYLOAD,2023-05-31 11:18:25,15.08840139,0.0001086,53.2155,162.3773,93.5788,266.5328,6.2597e-05,7.09e-06,0.0,0 STARLINK-4703,1 53855U 22114AP  23151.47113398  .00000709  00000-0  62597-4 0  9993,2 53855  53.2155 162.3773 0001086  93.5788 266.5328 15.08840139 40019,6917.88,95.438,540.496,538.994,0.0
53855.0,STARLINK-4703,PAYLOAD,2023-05-31 17:39:58,15.08838331,0.0001078,53.2154,161.1877,89.4732,270.6383,5.6958e-05,6.19e-06,0.0,0 STARLINK-4703,1 53855U 22114AP  23151.73609564  .00000619  00000-0  56958-4 0  9991,2 53855  53.2154 161.1877 0001078  89.4732 270.6383 15.08838331 39515,6917.885,95.438,540.496,539.005,0.0
53855.0,STARLINK-4703,PAYLOAD,2023-06-01 09:33:50,15.08838551,0.0001075,53.2154,158.2135,83.9047,276.2068,7.1218e-05,8.46e-06,0.0,0 STARLINK-4703,1 53855U 22114AP  23152.39849655  .00000846  00000-0  71218-4 0  9999,2 53855  53.2154 158.2135 0001075  83.9047 276.2068 15.08838551 40152,6917.885,95.438,540.493,539.006,0.0
53855.0,STARLINK-4703,PAYLOAD,2023-06-02 07:49:13,15.08841846,0.0001106,53.2152,154.0509,87.4108,272.7011,5.532e-05,5.93e-06,0.0,0 STARLINK-4703,1 53855U 22114AP  23153.32585515  .00000593  00000-0  55320-4 0  9990,2 53855  53.2152 154.0509 0001106  87.4108 272.7011 15.08841846 39755,6917.875,95.437,540.505,538.975,0.0
53855.0,STARLINK-4703,PAYLOAD,2023-06-02 17:21:32,15.08841256,0.0001106,53.2152,152.2669,86.8496,273.2623,4.6668e-05,4.55e-06,0.0,0 STARLINK-4703,1 53855U 22114AP  23153.72329592  .00000455  00000-0  46668-4 0  9997,2 53855  53.2152 152.2669 0001106  86.8496 273.2623 15.08841256 40353,6917.877,95.437,540.507,538.976,0.0
53855.0,STARLINK-4703,PAYLOAD,2023-06-03 09:15:24,15.08840731,0.0001108,53.2151,149.2935,86.7268,273.3851,4.8081e-05,4.77e-06,0.0,0 STARLINK-4703,1 53855U 22114AP  23154.38569653  .00000477  00000-0  48081-4 0  9999,2 53855  53.2151 149.2935 0001108  86.7268 273.3851 15.08840731 39913,6917.878,95.438,540.51,538.977,0.0
53855.0,STARLINK-4703,PAYLOAD,2023-06-03 17:12:19,15.08839727,0.0001107,53.2151,147.8066,86.3075,273.8044,4.025e-05,3.53e-06,0.0,0 STARLINK-4703,1 53855U 22114AP  23154.71689711  .00000353  00000-0  40250-4 0  9997,2 53855  53.2151 147.8066 0001107  86.3075 273.8044 15.08839727 40502,6917.881,95.438,540.512,538.98,0.0
